[{"OBJECT_NAME":"IRIDIUM 114","OBJECT_ID":"2017-003G","EPOCH":"2026-03-09T17:25:34.142304","MEAN_MOTION":14.34217503,"ECCENTRICITY":0.00021341,"INCLINATION":86.3979,"RA_OF_ASC_NODE":130.0546,"ARG_OF_PERICENTER":90.4305,"MEAN_ANOMALY":269.7135,"EPHEMERIS_TYPE":0,"CLASSIFICATION_TYPE":"U","NORAD_CAT_ID":41923,"ELEMENT_SET_NO":999,"REV_AT_EPOCH":47899,"BSTAR":9.4657235e-5,"MEAN_MOTION_DOT":2.85e-6,"MEAN_MOTION_DDOT":0},{"OBJECT_NAME":"CZ-6A DEB","OBJECT_ID":"2024-140AES","EPOCH":"2026-03-09T12:43:09.948864","MEAN_MOTION":14.43226925,"ECCENTRICITY":0.00511527,"INCLINATION":88.9086,"RA_OF_ASC_NODE":277.5738,"ARG_OF_PERICENTER":301.5679,"MEAN_ANOMALY":58.0535,"EPHEMERIS_TYPE":0,"CLASSIFICATION_TYPE":"U","NORAD_CAT_ID":64652,"ELEMENT_SET_NO":999,"REV_AT_EPOCH":7465,"BSTAR":0.00073666981,"MEAN_MOTION_DOT":2.531e-5,"MEAN_MOTION_DDOT":0}]
